#dP2023  2 21  0  0  0.00000000      96 __u+U ITR00 FIT  IAC
## 2250 172800.00000000   900.00000000 59996 0.0000000000000
+  120   C06C07C08C09C10C11C12C13C14C16C19C20C21C22C23C24C25
+        C26C27C28C29C30C32C33C34C35C36C37C38C39C40C41C42C43
+        C44C45C46E01E02E03E04E05E07E08E09E10E11E12E13E14E15
+        E18E19E21E24E25E26E27E30E31E33E34E36G01G02G03G04G05
+        G06G07G08G09G10G11G12G13G14G15G16G17G18G19G20G21G22
+        G23G24G25G26G27G28G29G30G31G32J02J03J04R01R02R03R04
+        R05R07R08R09R11R12R13R14R15R16R17R18R19R20R21R22R24
+        R25  0  0  0  0  0  0  0  0  0  0  0  0  0  0  0  0
++         0  0  0  0  0  9  7  0  6  0  7  6  8  8  6  6  7
++         7  9  8  9  7  7  6 10  9  6  8  0  0  0  7  9  7
++         9  7  7  5  6  6  7  6  7  7  6  7  6  6  9  6  6
++         8  6  7  7  7  6  6  5  6  5  7  6  6  5  6  7  5
++         5  6  5  6  6  5  6  5  5  6  5  6  4  6  5  6  5
++         6  5  6  6  6  4  6  5  6  6  6  8  7  7  7  7  6
++         7  6  6  8  7  7  8  6  5  7  7  7  7  8  5  5  7
++         8  0  0  0  0  0  0  0  0  0  0  0  0  0  0  0  0
%c M  cc GPS ccc cccc cccc cccc cccc ccccc ccccc ccccc ccccc
%c cc cc ccc ccc cccc cccc cccc cccc ccccc ccccc ccccc ccccc
%f  0.0000000  0.000000000  0.00000000000  0.000000000000000
%f  0.0000000  0.000000000  0.00000000000  0.000000000000000
%i    0    0    0    0      0      0      0      0         0
%i    0    0    0    0      0      0      0      0         0
/* INFORMATION & ANALYSIS CENTER (IAC)      ULTRA-RAPID DATA
/* S/V CLOCKS ARE ALIGNED TO GNSS TIME                      
/* G:C1WC2W R:C1PC2P E:C1XC5X C:C2IC6I J:C1CC2S             
/* PCV:IGS20_2247 OL/AL:FES2004  NONE     YN ORB:CoN CLK:CoN
*  2023 02 21  4  0  0.00000000
PC06 -19150.392633  31912.953920  19564.864692   -191.796455
PC07  -5139.564056  38388.951377  16886.277815     83.473009
PC08  -4370.029662  20412.447258 -36610.072874    524.777265
PC09 -11040.406930  30673.143244  26837.832565    760.336366
PC10    365.215272  40878.389913  11624.670304      6.755984
PC11   6760.840552  14522.981134 -22783.478057   -108.808122
PC12  -9862.386540  22627.441279 -12979.419400    464.682385
PC13   1660.434764  23330.870305 -34876.951718    212.772519
PC14  12807.004166  23675.884163   7489.514551    504.586831
PC16 -20563.495933  31770.796945  18478.917312    157.113970
PC19 -16260.894163 -16476.246717 -15541.622478   -894.606465
PC20  -8229.569802 -26649.592894    128.268971    714.028371
PC21  -5416.575606  21512.207686 -16922.281491   -910.206818
PC22 -15306.490023   3740.094049 -23027.076700   -622.150648
PC23  26329.261553   -818.271373  -9206.725773   -879.604557
PC24   6994.154416  17065.448002  20915.138852   -384.233369
PC25  24761.505655  10460.717233   7441.527371     75.551540
PC26 -11952.504900  13294.313897  21417.352213    -81.751532
PC27  16078.640666 -22221.484680   5173.428211     99.917020
PC28  22379.933590 -12306.657316 -11243.553727     72.863540
PC29 -15689.672223  -5711.222840  22353.955313     83.910718
PC30    443.531338 -20516.833475  18916.607889      1.090664
PC32   5348.249118 -21475.979248  17011.948826   -616.683680
PC33  16383.816329  16460.474101  15491.417411   -872.261311
PC34    765.531484  19871.668305 -19576.958962    110.777788
PC35 -21969.431191  12081.228754  12199.795501    676.925664
PC36 -24161.528033 -11402.297122  -8062.331852 999999.999999
PC37  13648.428890 -12368.199748 -20952.183910   -816.495439
PC38 -14177.074519  19057.964303 -34804.503614     60.199558
PC39 -24501.900970  32166.772912  11559.330919     -1.896076
PC40  -9119.015964  35824.252716  20463.881081    -15.660015
PC41  15566.797072  -3084.942744  23011.027666   -637.098244
PC42   7525.104947  26850.086450  -1305.046071   -825.339231
PC43  15248.582311   6572.445087 -22440.009359      8.219481
PC44 -15309.770483  22766.682908  -5006.211747     21.970480
PC45 -26196.313705   1024.652858   9591.878184    -63.121876
PC46  -8989.206623 -16924.080983 -20309.028040    -34.886531
PE01  24034.343569  14536.985074  -9325.180665   -600.314350
PE02 -24087.146143 -14220.608778   9708.719601     22.060288
PE03 -15955.623805  -6149.937358 -24162.228429   -652.103864
PE04  17235.365081 -15339.016277  18552.517245    -62.849798
PE05  -5243.067416 -24554.237373 -15676.016975    -93.326631
PE07  -8439.576129  28307.246826  -1943.603923    -24.501444
PE08 -17124.114706  15248.265851 -18721.436340    -39.512220
PE09   8497.260582 -28267.792491   2151.700274   -843.570352
PE10  21964.631930 -15101.847379  12870.601561   -513.910463
PE11  12280.603839 -17419.585831  20544.176495    969.022456
PE12  27371.255926 -10597.688496   3932.112614   -430.143231
PE13 -13144.110612  17305.391921 -20084.622049 999999.999999
PE14   6111.953883 -23168.625043   2957.326637    148.153294
PE15 -27458.784178  10436.143526  -3582.930922     -2.562224
PE18   -271.747514  29620.632937 -12761.549075   -366.415743
PE19  14831.836184   9128.651038  23941.678757  -3183.172033
PE21  16302.680863  23392.917593   7922.164229   -513.377510
PE24   2276.282065 -19308.066583 -22348.823025  -1125.785090
PE25 -16071.343887 -23463.447813  -8231.081826   -599.827917
PE26   9608.635513  13772.790923 -24368.216521     24.561973
PE27  -1390.450789  19706.754720  22032.381474   -517.397168
PE30 -18538.391030   3794.577089  22750.492602  -1259.516534
PE31  18062.156974  -4469.639768 -23018.255785   -516.605738
PE33  25463.412396   2525.660070 -14885.669452   -451.416133
PE34 -25544.793204  -2379.748887  14764.200391    -31.189284
PE36  -8672.154292 -13963.439760  24621.659137    -15.558884
PG01   3820.794198  14245.804122 -22411.939892    210.234102
PG02  -7653.057855 -13582.555361  22110.725416   -619.422007
PG03  10857.246147  22066.475986 -10302.093454   -360.549677
PG04   1670.022701  22944.717119  13185.117852    -22.967810
PG05   2837.392128 -16856.453504  20127.267014   -116.719963
PG06  26058.193142  -5383.565886   -378.267705    574.694306
PG07  18250.452088   8961.964133  17772.778118    237.076394
PG08  -5948.114929  25601.711172  -1849.684555   -109.505120
PG09  10261.275866  14487.424892  19666.713785   -214.323626
PG10 -20603.410381  -7180.125185 -15185.320162    -25.594017
PG11  20083.471425 -12157.536873  12401.005705   -109.932914
PG12  -7698.780588 -22715.062862 -11798.865193   -342.877753
PG13  13302.009262 -22566.006060   3524.694503    479.443071
PG14  20916.989394   9686.525931 -13302.544895    -22.117118
PG15   2418.912548 -26211.016372  -2614.439866     15.286381
PG16  -6949.147155  14503.193658  20744.297118   -519.117526
PG17  15320.604311    249.105904 -21276.977137    701.328688
PG18 -20953.129061  -6245.913850  15183.633841   -149.418542
PG19  17324.683519 -10062.531077 -17522.458632    280.503554
PG20  12459.835071  -9772.251417  21336.368108    449.415834
PG21  -5056.570032  16047.085883 -19748.813912    154.100871
PG22 -16680.718775  14037.921165 -14612.442107    431.252035
PG23 -20667.260150 -15917.336313  -5387.300509      7.075428
PG24     46.807870 -16428.447756 -21162.866801    -82.508807
PG25 -16161.646800 -20996.961450  -3691.242834    421.854028
PG26 -17222.646412   3827.411025  19830.365420    241.648011
PG27 -12702.293950  21379.965412   8469.985788     97.437867
PG28 -25966.621335   4962.200538  -2557.768539     20.485646
PG29  -6402.853759 -17770.799979  18590.459856   -587.235535
PG30  25590.121764    330.396383   7689.046378   -529.589562
PG31 -26048.177990   6174.505605   1299.918368   -209.807971
PG32 -16101.541611   3209.820598 -20669.315193   -402.498699
PJ02 -26630.333816  21212.244109  29911.754045     -0.967222
PJ03 -35371.308100  22463.660669   -360.334363      0.368297
PJ04 -19178.225669  27914.004407 -19916.180865     94.238403
PR01 -10035.754884 -17587.201111 -15501.452621     23.417514
PR02 -10736.998990   1263.364630 -23056.311569    -23.251104
PR03  -5554.186816  18705.065619 -16346.163509     72.882131
PR04   2493.117210  25367.092371   -743.235481    176.604942
PR05   9151.552435  18255.164851  15283.961264    108.095387
PR07   5261.946784 -19342.626048  15850.007393     50.331750
PR08  -2641.781573 -25380.273449    709.026464    -69.547609
PR09  22832.930921   3245.377113 -10969.187116    105.229177
PR11  -6114.531915 -13246.495247 -20915.093922     -7.443666
PR12 -21313.970643 -12391.846892  -6567.006769     25.148518
PR13 -23246.759693  -4592.864492   9428.135642    -32.253956
PR14 -10904.562702   7026.468766  21964.446264     24.359007
PR15   7090.818534  13639.341092  20367.027108     90.916235
PR16  21257.139573  12291.608165   6963.280572     11.520613
PR17 -18460.476815  16748.573385  -5484.220180    606.677911
PR18  -6447.080477  15362.992762 -19274.652803     67.853558
PR19   7564.225087   7315.967665 -23233.571698   -222.656467
PR20  20895.009299  -7450.819092 -12625.421507    -88.101435
PR21  17686.323533 -16905.367003   7186.319045   -374.938960
PR22   6048.073917 -15180.942636  19621.572045     71.854745
PR24 -20936.174770   8295.627814  12006.177673    148.354144
PR25  19302.176781 -15839.978247   5185.781476     55.676865
EOF
